[{"OBJECT_NAME":"TIANQI-22","OBJECT_ID":"2023-135B","EPOCH":"2026-03-09T19:41:12.033888","MEAN_MOTION":14.23087857,"ECCENTRICITY":0.00131339,"INCLINATION":49.9676,"RA_OF_ASC_NODE":210.6305,"ARG_OF_PERICENTER":271.8708,"MEAN_ANOMALY":88.07,"EPHEMERIS_TYPE":0,"CLASSIFICATION_TYPE":"U","NORAD_CAT_ID":57793,"ELEMENT_SET_NO":999,"REV_AT_EPOCH":13047,"BSTAR":9.8333486e-5,"MEAN_MOTION_DOT":6.4e-7,"MEAN_MOTION_DDOT":0},{"OBJECT_NAME":"NOAA 16 DEB","OBJECT_ID":"2000-055GZ","EPOCH":"2026-03-09T09:15:53.300448","MEAN_MOTION":14.15323087,"ECCENTRICITY":0.00576232,"INCLINATION":98.9561,"RA_OF_ASC_NODE":132.5076,"ARG_OF_PERICENTER":336.0115,"MEAN_ANOMALY":23.8376,"EPHEMERIS_TYPE":0,"CLASSIFICATION_TYPE":"U","NORAD_CAT_ID":41297,"ELEMENT_SET_NO":999,"REV_AT_EPOCH":52190,"BSTAR":0.0022674548,"MEAN_MOTION_DOT":4.444e-5,"MEAN_MOTION_DDOT":0}]
